EUTELSAT 7A             
1 28187U 04008A   25344.46433617  .00000106  00000+0  00000+0 0  9995
2 28187   5.3527  74.2735 0001538 226.6859 166.4256  1.00270854 79466
EUTELSAT 174A           
1 28924U 05052A   25344.67004286  .00000014  00000+0  00000+0 0  9991
2 28924   3.7433  78.8752 0006432 180.8638 235.1181  1.00273131 50445
EUTELSAT HOTBIRD 13B    
1 29270U 06032A   25344.85011269  .00000161  00000+0  00000+0 0  9997
2 29270   1.1762  84.3794 0003879 169.5944 164.9930  1.00268577 45411
EUTELSAT HOTBIRD 13C    
1 33459U 08065A   25344.48385068 -.00000277  00000+0  00000+0 0  9998
2 33459   2.4661  81.4443 0001500 216.4783 270.0622  1.00047037 45455
EUTELSAT 36B            
1 36101U 09065A   25344.64560272  .00000116  00000+0  00000+0 0  9997
2 36101   0.0395   7.1862 0006408 252.8334 102.5120  1.00273019 58815
EUTELSAT KA-SAT 9A      
1 37258U 10069A   25344.70868463  .00000066  00000+0  00000+0 0  9991
2 37258   0.0489 336.3163 0001647 215.1489 152.3614  1.00268566 42115
EUTELSAT 7 WEST A       
1 37816U 11051A   25344.70547795 -.00000056  00000+0  00000+0 0  9995
2 37816   0.0659 338.6824 0005776 248.0816  99.5828  1.00271041 51985
EUTELSAT 16A            
1 37836U 11057A   25344.63875601  .00000108  00000+0  00000+0 0  9992
2 37836   0.0586   4.7090 0005982 258.9451  61.9079  1.00271485  5438
